{
  "norad_id": 63560,
  "name": "STARLINK-11592 [DTC]",
  "history": [
    {
      "epoch": "2026-03-28T05:09:20.898144Z",
      "apogee_km": 357.9281853118973,
      "perigee_km": 354.40250866115457,
      "latitude_deg": -2.857864787948164e-05,
      "longitude_deg": 139.02291687893995,
      "height_km": 356.30802311322464,
      "semi_major_axis_km": 6734.302346986526,
      "eccentricity": 0.00026177,
      "inclination_deg": 43.0018,
      "raan_deg": 41.9985,
      "arg_perigee_deg": 257.9103,
      "mean_anomaly_deg": 102.1471,
      "mean_motion_rev_day": 15.70955365
    }
  ]
}